GLOBALSTAR M024         
1 25883U 99043A   24269.68633782 -.00000104  00000+0 -13816-2 0  9994
2 25883  51.9994 257.4280 0001702  20.8227 149.4045 11.10162615 85480
GLOBALSTAR M027         
1 25884U 99043B   24269.83742930 -.00000090  00000+0 -99539-3 0  9999
2 25884  52.0240 327.5816 0020851 284.1532  75.6944 11.04369399112032
GLOBALSTAR M054         
1 25885U 99043C   24269.92117763 -.00000175  00000+0 -26556-2 0  9992
2 25885  52.0117 139.0386 0006551  84.7046 287.9082 11.39205698 88930
GLOBALSTAR M053         
1 25886U 99043D   24269.85368225 -.00000069  00000+0 -29362-5 0  9999
2 25886  51.9978  71.6264 0003439   9.2303 143.5867 11.27658859 89623
GLOBALSTAR M058         
1 25907U 99049A   24270.43082203 -.00000044  00000+0  53809-3 0  9997
2 25907  51.9922  93.4653 0002701 114.5776 245.5340 11.93183394121261
GLOBALSTAR M050         
1 25908U 99049B   24270.54528582 -.00000070  00000+0  20005-3 0  9996
2 25908  51.9975 120.5330 0008290 223.6347 151.2874 12.07440428121073
GLOBALSTAR M033         
1 25909U 99049C   24270.43736797  .00000028  00000+0  11551-2 0  9991
2 25909  51.9947  10.8820 0013354  84.0987 276.1382 12.20281467136274
GLOBALSTAR M055         
1 25910U 99049D   24270.51645184 -.00000073  00000+0  18353-3 0  9990
2 25910  52.0041  34.2364 0006382 306.4744  53.5519 12.29409502136079
